TRANSPORTER-12 OBJECT BT
1 62674U 25009BT  26068.71416991  .00013824  00000+0  51029-3 0  9998
2 62674  97.4094 151.5992 0003682 313.5044  46.5889 15.27872239121360
STARLINK-36523          
1 67460U 26008R   26068.39430650  .00025813  00000+0  94342-3 0  9994
2 67460  43.0011 207.1838 0002454 274.7498  85.3073 15.27607881  9526
